H1 CPF  1  MCC 2022  2 21 11  5521 larets
H2  0304206 5557    27944 2022 02 20 23 55 00 2022 02 26 00 07 00   180 1 1  0 0 0
H9
10 0 59631 68820.000000 0     -1903263.027      4763762.743     -4851655.467
10 0 59631 69000.000000 0     -1885932.071      5640902.982     -3805575.987
10 0 59631 69180.000000 0     -1779681.022      6311206.435     -2620049.053
10 0 59631 69360.000000 0     -1594102.910      6747880.165     -1338431.221
10 0 59631 69540.000000 0     -1342292.487      6932971.164        -7695.905
10 0 59631 69720.000000 0     -1040129.244      6858155.162      1323322.211
10 0 59631 69900.000000 0      -705432.223      6525127.136      2605779.998
10 0 59631 70080.000000 0      -357032.882      5945554.691      3792676.208
10 0 59631 70260.000000 0       -13819.255      5140620.045      4840606.004
10 0 59631 70440.000000 0       306199.615      4140176.871      5711362.344
10 0 59631 70620.000000 0       586765.525      2981565.026      6373303.073
10 0 59631 70800.000000 0       814133.402      1708162.483      6802455.229
10 0 59631 70980.000000 0       977694.464       367728.374      6983329.637
10 0 59631 71160.000000 0      1070439.097      -989392.491      6909432.587
10 0 59631 71340.000000 0      1089244.132     -2312144.553      6583477.666
10 0 59631 71520.000000 0      1034975.535     -3550666.192      6017292.126
10 0 59631 71700.000000 0       912402.615     -4658162.457      5231413.308
10 0 59631 71880.000000 0       729930.416     -5592677.825      4254385.687
10 0 59631 72060.000000 0       499160.599     -6318719.891      3121776.057
10 0 59631 72240.000000 0       234292.326     -6808666.690      1874912.518
10 0 59631 72420.000000 0       -48612.042     -7043881.312       559386.549
10 0 59631 72600.000000 0      -332461.502     -7015481.460      -776631.176
10 0 59631 72780.000000 0      -600029.324     -6724705.872     -2084199.911
10 0 59631 72960.000000 0      -834853.001     -6182854.698     -3315447.227
10 0 59631 73140.000000 0     -1022096.749     -5410817.926     -4425358.128
10 0 59631 73320.000000 0     -1149332.159     -4438212.278     -5373438.456
10 0 59631 73500.000000 0     -1207196.762     -3302180.370     -6125179.240
10 0 59631 73680.000000 0     -1189900.650     -2045919.271     -6653277.829
10 0 59631 73860.000000 0     -1095561.064      -717004.351     -6938581.944
10 0 59631 74040.000000 0      -926354.782       634420.003     -6970738.042
10 0 59631 74220.000000 0      -688481.482      1957518.600     -6748538.535
10 0 59631 74400.000000 0      -391940.409      3202654.530     -6279967.877
10 0 59631 74580.000000 0       -50126.685      4323239.897     -5581948.413
10 0 59631 74760.000000 0       320744.220      5277491.767     -4679779.000
10 0 59631 74940.000000 0       702361.995      6030029.864     -3606271.981
10 0 59631 75120.000000 0      1075170.937      6553252.185     -2400599.583
10 0 59631 75300.000000 0      1419307.555      6828420.914     -1106879.769
10 0 59631 75480.000000 0      1715582.246      6846400.442       227455.009
10 0 59631 75660.000000 0      1946453.359      6607996.526      1553441.066
10 0 59631 75840.000000 0      2096938.552      6123876.362      2822433.276
10 0 59631 76020.000000 0      2155417.838      5414078.840      3987938.052
10 0 59631 76200.000000 0      2114285.701      4507140.865      5007352.266
10 0 59631 76380.000000 0      1970417.020      3438881.471      5843529.796
10 0 59631 76560.000000 0      1725427.824      2250921.444      6466103.611
10 0 59631 76740.000000 0      1385727.129       989021.637      6852540.894
10 0 59631 76920.000000 0       962357.048      -298699.743      6988904.179
10 0 59631 77100.000000 0       470630.879     -1563593.650      6870310.436
10 0 59631 77280.000000 0       -70420.786     -2758301.889      6501090.805
10 0 59631 77460.000000 0      -638780.162     -3838517.495      5894638.260
10 0 59631 77640.000000 0     -1210319.044     -4764620.768      5072947.352
10 0 59631 77820.000000 0     -1759797.536     -5503146.005      4065870.386
10 0 59631 78000.000000 0     -2261957.678     -6028039.098      2910084.365
10 0 59631 78180.000000 0     -2692661.334     -6321633.708      1647781.164
10 0 59631 78360.000000 0     -3030017.536     -6375295.950       325130.056
10 0 59631 78540.000000 0     -3255441.523     -6189705.517     -1009433.209
10 0 59631 78720.000000 0     -3354590.920     -5774751.558     -2307021.167
10 0 59631 78900.000000 0     -3318129.438     -5149042.737     -3520132.781
10 0 59631 79080.000000 0     -3142275.247     -4339055.893     -4604429.412
10 0 59631 79260.000000 0     -2829105.891     -3377975.217     -5520365.747
10 0 59631 79440.000000 0     -2386612.831     -2304290.279     -6234614.770
10 0 59631 79620.000000 0     -1828506.532     -1160221.359     -6721243.583
10 0 59631 79800.000000 0     -1173780.540         9958.074     -6962606.511
10 0 59631 79980.000000 0      -446059.293      1161630.465     -6949937.462
10 0 59631 80160.000000 0       327248.638      2251515.860     -6683645.353
10 0 59631 80340.000000 0      1115967.551      3239280.894     -6173310.981
10 0 59631 80520.000000 0      1888318.804      4089031.457     -5437379.009
10 0 59631 80700.000000 0      2612190.774      4770635.312     -4502540.644
10 0 59631 80880.000000 0      3256471.564      5260831.063     -3402818.330
10 0 59631 81060.000000 0      3792390.976      5544075.158     -2178363.834
10 0 59631 81240.000000 0      4194812.724      5613081.700      -874001.710
10 0 59631 81420.000000 0      4443407.548      5469021.880       462433.435
10 0 59631 81600.000000 0      4523642.975      5121364.615      1781897.307
10 0 59631 81780.000000 0      4427534.422      4587365.509      3035987.672
10 0 59631 81960.000000 0      4154121.575      3891234.302      4178771.330
10 0 59631 82140.000000 0      3709639.105      3063018.221      5168495.668
10 0 59631 82320.000000 0      3107384.789      2137273.688      5969114.470
10 0 59631 82500.000000 0      2367289.443      1151592.276      6551569.624
10 0 59631 82680.000000 0      1515225.989       145056.728      6894791.938
10 0 59631 82860.000000 0       582084.800      -843305.166      6986409.879
10 0 59631 83040.000000 0      -397351.251     -1776020.582      6823160.176
10 0 59631 83220.000000 0     -1385696.812     -2618579.412      6410987.607
10 0 59631 83400.000000 0     -2344373.659     -3340699.720      5764835.639
10 0 59631 83580.000000 0     -3235097.831     -3917416.662      4908145.688
10 0 59631 83760.000000 0     -4021412.821     -4329966.455      3872059.790
10 0 59631 83940.000000 0     -4670197.298     -4566422.134      2694328.281
10 0 59631 84120.000000 0     -5153079.625     -4622055.937      1417960.715
10 0 59631 84300.000000 0     -5447699.254     -4499407.513        89655.473
10 0 59631 84480.000000 0     -5538745.378     -4208045.233     -1241935.072
10 0 59631 84660.000000 0     -5418714.167     -3764029.381     -2528032.444
10 0 59631 84840.000000 0     -5088336.253     -3189099.759     -3721567.306
10 0 59631 85020.000000 0     -4556656.761     -2509637.674     -4778931.639
10 0 59631 85200.000000 0     -3840771.795     -1755460.191     -5661578.161
10 0 59631 85380.000000 0     -2965237.807      -958508.205     -6337406.057
10 0 59631 85560.000000 0     -1961188.273      -151491.243     -6781887.540
10 0 59631 85740.000000 0      -865198.235       633448.455     -6978906.644
10 0 59631 85920.000000 0       282051.997      1365999.873     -6921299.000
10 0 59631 86100.000000 0      1437270.045      2018837.816     -6611096.212
10 0 59631 86280.000000 0      2556167.229      2568635.312     -6059472.017
10 0 59632    60.000000 0      3595148.061      2996903.042     -5286376.128
10 0 59632   240.000000 0      4513012.452      3290624.671     -4319863.884
10 0 59632   420.000000 0      5272617.604      3442668.700     -3195130.495
10 0 59632   600.000000 0      5842425.510      3451953.499     -1953260.687
10 0 59632   780.000000 0      6197861.922      3323356.446      -639732.669
10 0 59632   960.000000 0      6322414.819      3067361.867       697273.655
10 0 59632  1140.000000 0      6208408.934      2699461.581      2008691.140
10 0 59632  1320.000000 0      5857411.122      2239342.477      3246420.389
10 0 59632  1500.000000 0      5280245.208      1709903.313      4365143.088
10 0 59632  1680.000000 0      4496614.822      1136152.851      5324005.952
10 0 59632  1860.000000 0      3534368.802       544051.561      6088104.268
10 0 59632  2040.000000 0      2428446.857       -40645.687      6629719.479
10 0 59632  2220.000000 0      1219565.256      -593489.067      6929268.802
10 0 59632  2400.000000 0       -47300.480     -1092336.425      6975965.060
10 0 59632  2580.000000 0     -1324589.604     -1518225.759      6768168.919
10 0 59632  2760.000000 0     -2563924.605     -1856086.872      6313430.937
10 0 59632  2940.000000 0     -3717919.721     -2095268.692      5628235.052
10 0 59632  3120.000000 0     -4741990.091     -2229874.400      4737449.410
10 0 59632  3300.000000 0     -5596096.546     -2258891.883      3673469.922
10 0 59632  3480.000000 0     -6246348.053     -2186106.687      2475080.448
10 0 59632  3660.000000 0     -6666398.890     -2019803.864      1186064.671
10 0 59632  3840.000000 0     -6838573.870     -1772270.370      -146399.686
10 0 59632  4020.000000 0     -6754647.713     -1459114.131     -1473500.883
10 0 59632  4200.000000 0     -6416234.951     -1098436.158     -2746627.813
10 0 59632  4380.000000 0     -5834768.250      -709902.357     -3919193.835
10 0 59632  4560.000000 0     -5031071.291      -313762.127     -4948370.074
10 0 59632  4740.000000 0     -4034551.673        70137.079     -5796653.322
10 0 59632  4920.000000 0     -2882059.803       423286.097     -6433208.284
10 0 59632  5100.000000 0     -1616476.604       729357.833     -6834940.456
10 0 59632  5280.000000 0      -285096.383       974923.391     -6987283.336
99
